STARLINK-4470           
1 53655U 22105H   23359.60838103  .00001802  00000+0  14481-3 0  9996
2 53655  97.6540 237.9534 0006183  57.9323 302.2501 15.01264273 72448
STARLINK-4466           
1 53656U 22105J   23359.59912176  .00000558  00000+0  48069-4 0  9995
2 53656  97.6520 237.9446 0005185  49.0654 311.1019 15.01266231 72448
STARLINK-4469           
1 53657U 22105K   23359.67318024  .00003258  00000+0  25796-3 0  9998
2 53657  97.6538 238.0184 0006751  57.8427 302.3451 15.01270812 72738
STARLINK-4452           
1 53658U 22105L   23359.60097274 -.00001195  00000+0 -88378-4 0  9999
2 53658  97.6528 237.9428 0005771  53.9229 306.2529 15.01271653 72446
STARLINK-4463           
1 53659U 22105M   23359.66972955 -.00002312  00000+0 -17543-3 0  9991
2 53659  97.6543 238.0160 0006464  43.7173 316.4562 15.01250554 72733
STARLINK-4473           
1 53660U 22105N   23359.66207700  .00004343  00000+0  34261-3 0  9992
2 53660  97.6545 237.9930 0004731  46.1945 313.9669 15.01245880 72735
STARLINK-4472           
1 53661U 22105P   23359.66417396  .00004692  00000+0  36968-3 0  9990
2 53661  97.6536 238.0020 0005984  41.1992 318.9682 15.01247030 72735
STARLINK-4357           
1 53662U 22105Q   23359.65861355  .00000888  00000+0  73764-4 0  9997
2 53662  97.6547 237.9859 0003192  46.9430 313.2061 15.01257114 72738
STARLINK-4457           
1 53663U 22105R   23359.59727256  .00000789  00000+0  66042-4 0  9993
2 53663  97.6542 237.9316 0005338  41.5921 318.5708 15.01258811 72441
STARLINK-4471           
1 53664U 22105S   23359.65490602  .00000615  00000+0  52471-4 0  9992
2 53664  97.6546 237.9868 0002773  60.4589 299.6911 15.01261448 72735
STARLINK-4334           
1 53665U 22105T   23359.65651252  .00000465  00000+0  40809-4 0  9998
2 53665  97.6547 237.9947 0002938  52.3145 307.8346 15.01260685 72732
STARLINK-4449           
1 53666U 22105U   23359.58431703  .00010698  00000+0  83645-3 0  9991
2 53666  97.6541 237.9176 0003225  94.2277 265.9316 15.01246542 72447
STARLINK-4406           
1 53667U 22105V   23359.66021116 -.00009493  00000+0 -73471-3 0  9993
2 53667  97.6546 237.9898 0003772  43.0287 317.1231 15.01292821 72733
STARLINK-4458           
1 53668U 22105W   23359.69706136 -.00167983  00000+0 -13024-1 0  9994
2 53668  97.6453 238.0500 0001480  32.8183 327.3134 15.02304751 72741
STARLINK-4464           
1 53669U 22105X   23359.59171711  .00001338  00000+0  10874-3 0  9990
2 53669  97.6550 237.9134 0003679  57.6499 302.5081 15.01257306 72443
STARLINK-4459           
1 53670U 22105Y   23359.58245104  .00000783  00000+0  65522-4 0  9993
2 53670  97.6540 237.9117 0001641  97.9467 262.1943 15.01263185 72444
STARLINK-4440           
1 53671U 22105Z   23359.64934453  .00002108  00000+0  16866-3 0  9992
2 53671  97.6541 237.9814 0001969  83.3991 276.7458 15.01265847 72735
STARLINK-4428           
1 53672U 22105AA  23359.64749956  .00000535  00000+0  46254-4 0  9992
2 53672  97.6539 237.9706 0001556  82.7770 277.3631 15.01263595 72731
STARLINK-4456           
1 53673U 22105AB  23359.60700939  .00000484  00000+0  43132-4 0  9992
2 53673  97.6551 238.0894 0005029  70.1538 290.0227 15.00447574 72450
STARLINK-4620           
1 53674U 22105AC  23359.57690278  .00000438  00000+0  38696-4 0  9991
2 53674  97.6540 237.9058 0001798  88.5925 271.5505 15.01256407 72447
STARLINK-4617           
1 53675U 22105AD  23359.63801463  .00026110  00000+0  20286-2 0  9998
2 53675  97.6544 237.9879 0001932  80.8498 279.2945 15.01283264 72739
STARLINK-4621           
1 53676U 22105AE  23359.63984628  .00001395  00000+0  11313-3 0  9994
2 53676  97.6542 237.9678 0001744  84.7018 275.4405 15.01264010 72734
STARLINK-4579           
1 53677U 22105AF  23359.57875253  .00001430  00000+0  11592-3 0  9990
2 53677  97.6540 237.9075 0001560  95.0029 265.1373 15.01256408 72447
STARLINK-4418           
1 53678U 22105AG  23359.64564693  .00000560  00000+0  48148-4 0  9993
2 53678  97.6541 237.9551 0001556  81.3300 278.8100 15.01266019 72733
STARLINK-4632           
1 53679U 22105AH  23359.57504617  .00002500  00000+0  19915-3 0  9991
2 53679  97.6543 237.9023 0001862  92.1933 267.9504 15.01264571 72448
STARLINK-4630           
1 53680U 22105AJ  23359.63429438 -.00002315  00000+0 -17564-3 0  9991
2 53680  97.6550 237.9627 0002034  91.5800 268.5658 15.01273249 72737
STARLINK-4424           
1 53681U 22105AK  23359.63244212  .00001063  00000+0  87333-4 0  9996
2 53681  97.6559 237.9736 0001714  72.5082 287.6330 15.01265359 72735
STARLINK-4438           
1 53682U 22105AL  23359.62317955  .00001916  00000+0  15368-3 0  9996
2 53682  97.6562 237.9786 0002341  94.1006 266.0486 15.01268408 72739
STARLINK-4625           
1 53683U 22105AM  23359.56949042  .00004201  00000+0  33152-3 0  9999
2 53683  97.6542 237.8987 0001472  93.6654 266.4738 15.01257834 72440
STARLINK-4624           
1 53684U 22105AN  23359.58800364  .00000647  00000+0  54934-4 0  9997
2 53684  97.6544 237.9822 0002905  68.6367 291.5167 15.01266623 72448
STARLINK-4626           
1 53685U 22105AP  23359.63083395  .00007850  00000+0  61484-3 0  9991
2 53685  97.6564 237.9636 0002023  79.8263 280.3189 15.01274713 72454
STARLINK-4467           
1 53686U 22105AQ  23359.60282022  .00001347  00000+0  10945-3 0  9998
2 53686  97.6553 238.0044 0005840  55.1545 305.0228 15.01262375 72458
STARLINK-4569           
1 53687U 22105AR  23359.63059258  .00000872  00000+0  72460-4 0  9998
2 53687  97.6562 237.9591 0001637  79.7386 280.4023 15.01261146 72453
STARLINK-4571           
1 53688U 22105AS  23359.62503567  .00002454  00000+0  19557-3 0  9990
2 53688  97.6575 237.9613 0002216 104.4176 255.7295 15.01262197 72453
STARLINK-4562           
1 53689U 22105AT  23359.61232334  .00003178  00000+0  25186-3 0  9990
2 53689  97.6550 237.9906 0004941  67.7951 292.3797 15.01264287 72457
STARLINK-4570           
1 53690U 22105AU  23359.64725954  .00000971  00000+0  80190-4 0  9995
2 53690  97.6540 237.9188 0001479  90.8778 269.2616 15.01259291 72730
STARLINK-4560           
1 53691U 22105AV  23359.62688419  .00002440  00000+0  19447-3 0  9997
2 53691  97.6580 237.9530 0001914  94.7403 265.4040 15.01265546 72456
STARLINK-4572           
1 53692U 22105AW  23359.62133275  .00001560  00000+0  12596-3 0  9993
2 53692  97.6556 237.9609 0002914  92.0006 268.1552 15.01267341 72451
STARLINK-4566           
1 53693U 22105AX  23359.68613416  .00001433  00000+0  11610-3 0  9995
2 53693  97.6555 238.0291 0003262  86.0153 274.1444 15.01269654 72741
STARLINK-4725           
1 53700U 22107A   23359.10795360  .00002053  00000+0  14703-3 0  9997
2 53700  53.2173 260.1459 0001654 105.7478 254.3696 15.08841537 73246
STARLINK-4711           
1 53701U 22107B   23359.10426585  .00002304  00000+0  16281-3 0  9990
2 53701  53.2162 260.1181 0001619  97.5400 262.5776 15.08845869 73243
STARLINK-4724           
1 53702U 22107C   23359.12960253  .00002845  00000+0  19674-3 0  9997
2 53702  53.2163 245.3183 0001558 104.3348 255.7817 15.08847347 73481
STARLINK-4731           
1 53703U 22107D   23359.05276800  .00017815  00000+0  11344-2 0  9996
2 53703  53.2157 260.5134 0001387  83.3774 276.7376 15.08846251 73238
STARLINK-4714           
1 53704U 22107E   23358.96818678 -.00000187  00000+0  63314-5 0  9993
2 53704  53.2165 261.3946 0001613 113.1605 246.9557 15.08841397 73051
STARLINK-4717           
1 53705U 22107F   23359.03072105  .00017683  00000+0  11245-2 0  9991
2 53705  53.2158 261.0801 0001303  75.1649 284.9488 15.08898952 73225
STARLINK-4716           
1 53706U 22107G   23359.14848062  .00001961  00000+0  14123-3 0  9998
2 53706  53.2169 260.3904 0001629  95.8304 264.2874 15.08849034 73241
STARLINK-4667           
1 53707U 22107H   23359.80305982  .00004150  00000+0  27865-3 0  9991
2 53707  53.2155 242.4110 0001489  99.1194 260.9966 15.08845187 72806
STARLINK-4694           
1 53708U 22107J   23358.99343968  .00002546  00000+0  17794-3 0  9994
2 53708  53.2167 245.9032 0001715 100.4413 259.6772 15.08847045 73438
STARLINK-4685           
1 53709U 22107K   23359.11301658  .00002596  00000+0  18108-3 0  9995
2 53709  53.2175 265.1937 0001516  97.1813 262.9352 15.08851119 72865
STARLINK-4627           
1 53711U 22107M   23359.25655244  .00016103  00000+0  10270-2 0  9996
2 53711  53.2157 264.6573 0001446 103.1995 256.9159 15.08859618 72881
STARLINK-4683           
1 53712U 22107N   23359.03202932  .00014375  00000+0  91854-3 0  9992
2 53712  53.2172 265.4041 0001759  95.7670 264.3523 15.08876264 72874
STARLINK-4698           
1 53713U 22107P   23359.17326679  .00000137  00000+0  26702-4 0  9995
2 53713  53.2173 269.8312 0001409 111.0487 249.0655 15.08837240 72805
STARLINK-4688           
1 53714U 22107Q   23359.84719405  .00001517  00000+0  11339-3 0  9995
2 53714  53.2152 241.9751 0001394  97.2017 262.9134 15.08841955 72813
STARLINK-4686           
1 53715U 22107R   23359.78048398  .00000051  00000+0  21327-4 0  9996
2 53715  53.2173 267.2074 0001532  97.4396 262.6770 15.08839989 72448
STARLINK-4699           
1 53716U 22107S   23359.77680226 -.00000601  00000+0 -19651-4 0  9998
2 53716  53.2170 267.1845 0001658 121.9354 238.1799 15.08838744 72444
STARLINK-4695           
1 53718U 22107U   23359.17062532  .00006315  00000+0  41441-3 0  9995
2 53718  53.2179 270.4955 0001735 109.3123 250.8057 15.08850914 72793
STARLINK-4644           
1 53719U 22107V   23359.83475123 -.00000610  00000+0 -20209-4 0  9997
2 53719  53.2152 236.8722 0001487 106.4355 253.6801 15.08844417 72869
STARLINK-4642           
1 53720U 22107W   23359.18800583  .00006954  00000+0  45442-3 0  9999
2 53720  53.2171 269.9128 0001662 101.5893 258.5285 15.08853205 72356
STARLINK-4707           
1 53721U 22107X   23359.12913773  .00003440  00000+0  23405-3 0  9992
2 53721  53.2174 270.2623 0001415 100.3178 259.7973 15.08847116 72805
